{
    "week": 289,
    "satellites": [
        {
            "Name": "BEIDOU-3 M13 (C32)",
            "Line1": "1 43622U 18072A   24297.07295471  .00000004  00000+0  00000+0 0  9996",
            "Line2": "2 43622  56.1002  82.6176 0004035 297.6649  62.2858  1.86231198 41441",
            "SatelliteNumber": "43622",
            "Classification": "U",
            "LaunchYear": "18",
            "LaunchNumber": "072",
            "PieceOfLaunch": "A",
            "EpochYear": "24",
            "EpochDay": 297.07295471,
            "FirstDerivativeMeanMotion": 4e-08,
            "SecondDerivativeMeanMotion": "00000+0",
            "BSTAR": "00000+0",
            "SetNumber": "999",
            "Inclination": 56.1002,
            "RAAN": 82.6176,
            "Eccentricity": 0.0004035,
            "ArgumentOfPerigee": 297.6649,
            "MeanAnomaly": 62.2858,
            "MeanMotion": 1.86231198,
            "RevolutionNumber": "4144"
        },
        {
            "Name": "BEIDOU-3 M14 (C33)",
            "Line1": "1 43623U 18072B   24295.86450658 -.00000003  00000+0  00000+0 0  9992",
            "Line2": "2 43623  56.1008  82.6511 0002330 358.5868   1.4012  1.86231163 41413",
            "SatelliteNumber": "43623",
            "Classification": "U",
            "LaunchYear": "18",
            "LaunchNumber": "072",
            "PieceOfLaunch": "B",
            "EpochYear": "24",
            "EpochDay": 295.86450658,
            "FirstDerivativeMeanMotion": -3e-08,
            "SecondDerivativeMeanMotion": "00000+0",
            "BSTAR": "00000+0",
            "SetNumber": "999",
            "Inclination": 56.1008,
            "RAAN": 82.6511,
            "Eccentricity": 0.000233,
            "ArgumentOfPerigee": 358.5868,
            "MeanAnomaly": 1.4012,
            "MeanMotion": 1.86231163,
            "RevolutionNumber": "4141"
        },
        {
            "Name": "BEIDOU-3 M16 (C35)",
            "Line1": "1 43647U 18078A   24296.02651774 -.00000073  00000+0  00000+0 0  9992",
            "Line2": "2 43647  54.6170 321.0371 0006136   7.8777 352.1702  1.86232235 40925",
            "SatelliteNumber": "43647",
            "Classification": "U",
            "LaunchYear": "18",
            "LaunchNumber": "078",
            "PieceOfLaunch": "A",
            "EpochYear": "24",
            "EpochDay": 296.02651774,
            "FirstDerivativeMeanMotion": -7.3e-07,
            "SecondDerivativeMeanMotion": "00000+0",
            "BSTAR": "00000+0",
            "SetNumber": "999",
            "Inclination": 54.617,
            "RAAN": 321.0371,
            "Eccentricity": 0.0006136,
            "ArgumentOfPerigee": 7.8777,
            "MeanAnomaly": 352.1702,
            "MeanMotion": 1.86232235,
            "RevolutionNumber": "4092"
        },
        {
            "Name": "BEIDOU-3 M15 (C34)",
            "Line1": "1 43648U 18078B   24296.15564264 -.00000072  00000+0  00000+0 0  9993",
            "Line2": "2 43648  54.6126 321.0351 0002781   4.8956 355.1453  1.86232190 40941",
            "SatelliteNumber": "43648",
            "Classification": "U",
            "LaunchYear": "18",
            "LaunchNumber": "078",
            "PieceOfLaunch": "B",
            "EpochYear": "24",
            "EpochDay": 296.15564264,
            "FirstDerivativeMeanMotion": -7.2e-07,
            "SecondDerivativeMeanMotion": "00000+0",
            "BSTAR": "00000+0",
            "SetNumber": "999",
            "Inclination": 54.6126,
            "RAAN": 321.0351,
            "Eccentricity": 0.0002781,
            "ArgumentOfPerigee": 4.8956,
            "MeanAnomaly": 355.1453,
            "MeanMotion": 1.8623219,
            "RevolutionNumber": "4094"
        },
        {
            "Name": "BEIDOU-3 G1 (C59)",
            "Line1": "1 43683U 18085A   24296.87183529 -.00000284  00000+0  00000+0 0  9995",
            "Line2": "2 43683   2.5043 104.9363 0001858  49.6804 331.1120  1.00270263 22027",
            "SatelliteNumber": "43683",
            "Classification": "U",
            "LaunchYear": "18",
            "LaunchNumber": "085",
            "PieceOfLaunch": "A",
            "EpochYear": "24",
            "EpochDay": 296.87183529,
            "FirstDerivativeMeanMotion": -2.84e-06,
            "SecondDerivativeMeanMotion": "00000+0",
            "BSTAR": "00000+0",
            "SetNumber": "999",
            "Inclination": 2.5043,
            "RAAN": 104.9363,
            "Eccentricity": 0.0001858,
            "ArgumentOfPerigee": 49.6804,
            "MeanAnomaly": 331.112,
            "MeanMotion": 1.00270263,
            "RevolutionNumber": "2202"
        },
        {
            "Name": "BEIDOU-3 M17 (C36)",
            "Line1": "1 43706U 18093A   24296.30777949 -.00000013  00000+0  00000+0 0  9993",
            "Line2": "2 43706  54.2010 202.7558 0008066 293.1491  66.8160  1.86228344 40292",
            "SatelliteNumber": "43706",
            "Classification": "U",
            "LaunchYear": "18",
            "LaunchNumber": "093",
            "PieceOfLaunch": "A",
            "EpochYear": "24",
            "EpochDay": 296.30777949,
            "FirstDerivativeMeanMotion": -1.3e-07,
            "SecondDerivativeMeanMotion": "00000+0",
            "BSTAR": "00000+0",
            "SetNumber": "999",
            "Inclination": 54.201,
            "RAAN": 202.7558,
            "Eccentricity": 0.0008066,
            "ArgumentOfPerigee": 293.1491,
            "MeanAnomaly": 66.816,
            "MeanMotion": 1.86228344,
            "RevolutionNumber": "4029"
        },
        {
            "Name": "BEIDOU-3 M18 (C37)",
            "Line1": "1 43707U 18093B   24296.17208157 -.00000011  00000+0  00000+0 0  9997",
            "Line2": "2 43707  54.2019 202.7523 0007110 326.8645  33.1413  1.86229895 40300",
            "SatelliteNumber": "43707",
            "Classification": "U",
            "LaunchYear": "18",
            "LaunchNumber": "093",
            "PieceOfLaunch": "B",
            "EpochYear": "24",
            "EpochDay": 296.17208157,
            "FirstDerivativeMeanMotion": -1.1e-07,
            "SecondDerivativeMeanMotion": "00000+0",
            "BSTAR": "00000+0",
            "SetNumber": "999",
            "Inclination": 54.2019,
            "RAAN": 202.7523,
            "Eccentricity": 0.000711,
            "ArgumentOfPerigee": 326.8645,
            "MeanAnomaly": 33.1413,
            "MeanMotion": 1.86229895,
            "RevolutionNumber": "4030"
        },
        {
            "Name": "BEIDOU-3 IGSO-1 (C38)",
            "Line1": "1 44204U 19023A   24296.71490215 -.00000226  00000+0  00000+0 0  9990",
            "Line2": "2 44204  57.8349  43.8945 0024695 208.4654 155.2763  1.00263209  1171",
            "SatelliteNumber": "44204",
            "Classification": "U",
            "LaunchYear": "19",
            "LaunchNumber": "023",
            "PieceOfLaunch": "A",
            "EpochYear": "24",
            "EpochDay": 296.71490215,
            "FirstDerivativeMeanMotion": -2.26e-06,
            "SecondDerivativeMeanMotion": "00000+0",
            "BSTAR": "00000+0",
            "SetNumber": "999",
            "Inclination": 57.8349,
            "RAAN": 43.8945,
            "Eccentricity": 0.0024695,
            "ArgumentOfPerigee": 208.4654,
            "MeanAnomaly": 155.2763,
            "MeanMotion": 1.00263209,
            "RevolutionNumber": "117"
        },
        {
            "Name": "BEIDOU-2 G8 (C01)",
            "Line1": "1 44231U 19027A   24297.28217653 -.00000256  00000+0  00000+0 0  9993",
            "Line2": "2 44231   1.7931  74.5378 0004610 190.5293  13.1602  1.00267609 20030",
            "SatelliteNumber": "44231",
            "Classification": "U",
            "LaunchYear": "19",
            "LaunchNumber": "027",
            "PieceOfLaunch": "A",
            "EpochYear": "24",
            "EpochDay": 297.28217653,
            "FirstDerivativeMeanMotion": -2.56e-06,
            "SecondDerivativeMeanMotion": "00000+0",
            "BSTAR": "00000+0",
            "SetNumber": "999",
            "Inclination": 1.7931,
            "RAAN": 74.5378,
            "Eccentricity": 0.000461,
            "ArgumentOfPerigee": 190.5293,
            "MeanAnomaly": 13.1602,
            "MeanMotion": 1.00267609,
            "RevolutionNumber": "2003"
        },
        {
            "Name": "BEIDOU-3 IGSO-2 (C39)",
            "Line1": "1 44337U 19035A   24297.56496487 -.00000119  00000+0  00000+0 0  9992",
            "Line2": "2 44337  55.1822 164.1439 0034625 201.5872 347.7327  1.00257236 19660",
            "SatelliteNumber": "44337",
            "Classification": "U",
            "LaunchYear": "19",
            "LaunchNumber": "035",
            "PieceOfLaunch": "A",
            "EpochYear": "24",
            "EpochDay": 297.56496487,
            "FirstDerivativeMeanMotion": -1.19e-06,
            "SecondDerivativeMeanMotion": "00000+0",
            "BSTAR": "00000+0",
            "SetNumber": "999",
            "Inclination": 55.1822,
            "RAAN": 164.1439,
            "Eccentricity": 0.0034625,
            "ArgumentOfPerigee": 201.5872,
            "MeanAnomaly": 347.7327,
            "MeanMotion": 1.00257236,
            "RevolutionNumber": "1966"
        }
    ]
}